[{"OBJECT_NAME":"STARLINK-3004","OBJECT_ID":"2021-059B","EPOCH":"2026-03-09T21:19:55.223904","MEAN_MOTION":15.01258246,"ECCENTRICITY":0.00021244,"INCLINATION":97.6585,"RA_OF_ASC_NODE":195.4969,"ARG_OF_PERICENTER":73.0691,"MEAN_ANOMALY":287.0766,"EPHEMERIS_TYPE":0,"CLASSIFICATION_TYPE":"U","NORAD_CAT_ID":48880,"ELEMENT_SET_NO":999,"REV_AT_EPOCH":25883,"BSTAR":-1.697335e-6,"MEAN_MOTION_DOT":-8.1e-7,"MEAN_MOTION_DDOT":0},{"OBJECT_NAME":"ICEYE-X53","OBJECT_ID":"2025-135BJ","EPOCH":"2026-03-09T22:54:54.338112","MEAN_MOTION":15.00849861,"ECCENTRICITY":0.00010276,"INCLINATION":97.7425,"RA_OF_ASC_NODE":186.1287,"ARG_OF_PERICENTER":193.9381,"MEAN_ANOMALY":166.1815,"EPHEMERIS_TYPE":0,"CLASSIFICATION_TYPE":"U","NORAD_CAT_ID":64584,"ELEMENT_SET_NO":999,"REV_AT_EPOCH":3919,"BSTAR":0.00050918186,"MEAN_MOTION_DOT":6.416e-5,"MEAN_MOTION_DDOT":0}]
